{
    "bodies": [
        {
            "name": "TNO-593",
            "mass": 0,
            "semi_major_axis": 352.685546875,
            "eccentricity": 0.85791015625,
            "inclination": 0.2526807242267181,
            "longitude_of_ascending_node": 0.8636083017927902,
            "argument_of_perihelion": 5.159768196599917,
            "mean_anomaly": 4.461990858291083
        },
        {
            "name": "TNO-594",
            "mass": 0,
            "semi_major_axis": 353.02734375,
            "eccentricity": 0.8580078125,
            "inclination": 0.2531068300011308,
            "longitude_of_ascending_node": 3.0600255307379163,
            "argument_of_perihelion": 2.2819602644277803,
            "mean_anomaly": 4.038897081333089
        },
        {
            "name": "TNO-595",
            "mass": 0,
            "semi_major_axis": 353.369140625,
            "eccentricity": 0.85810546875,
            "inclination": 0.2535329357755435,
            "longitude_of_ascending_node": 0.7081682286327267,
            "argument_of_perihelion": 4.012410707458258,
            "mean_anomaly": 1.8687943867191084
        },
        {
            "name": "TNO-596",
            "mass": 0,
            "semi_major_axis": 353.7109375,
            "eccentricity": 0.8582031250000001,
            "inclination": 0.25395904154995613,
            "longitude_of_ascending_node": 1.7794206479568868,
            "argument_of_perihelion": 0.9932204469387136,
            "mean_anomaly": 1.8724104244411615
        },
        {
            "name": "TNO-597",
            "mass": 0,
            "semi_major_axis": 354.052734375,
            "eccentricity": 0.8583007812500001,
            "inclination": 0.25438514732436884,
            "longitude_of_ascending_node": 3.66790450938611,
            "argument_of_perihelion": 4.019452706599428,
            "mean_anomaly": 4.943572601556741
        },
        {
            "name": "TNO-598",
            "mass": 0,
            "semi_major_axis": 354.39453125,
            "eccentricity": 0.8583984375,
            "inclination": 0.2548112530987815,
            "longitude_of_ascending_node": 0.7142156354546976,
            "argument_of_perihelion": 4.44954334094133,
            "mean_anomaly": 0.33783084499810234
        },
        {
            "name": "TNO-599",
            "mass": 0,
            "semi_major_axis": 354.736328125,
            "eccentricity": 0.85849609375,
            "inclination": 0.2552373588731942,
            "longitude_of_ascending_node": 0.9444414438906196,
            "argument_of_perihelion": 1.2529029431686654,
            "mean_anomaly": 6.20965017037045
        },
        {
            "name": "TNO-600",
            "mass": 0,
            "semi_major_axis": 355.078125,
            "eccentricity": 0.85859375,
            "inclination": 0.25566346464760686,
            "longitude_of_ascending_node": 3.6289808039303053,
            "argument_of_perihelion": 4.812334374477382,
            "mean_anomaly": 5.00703425934241
        },
        {
            "name": "TNO-601",
            "mass": 0,
            "semi_major_axis": 355.419921875,
            "eccentricity": 0.8586914062500001,
            "inclination": 0.2560895704220195,
            "longitude_of_ascending_node": 4.888147290455766,
            "argument_of_perihelion": 3.847277269140616,
            "mean_anomaly": 1.8999869456917204
        },
        {
            "name": "TNO-602",
            "mass": 0,
            "semi_major_axis": 355.76171875,
            "eccentricity": 0.8587890625000001,
            "inclination": 0.25651567619643223,
            "longitude_of_ascending_node": 6.1495609659871295,
            "argument_of_perihelion": 2.3049327577589245,
            "mean_anomaly": 4.03881152060565
        },
        {
            "name": "TNO-603",
            "mass": 0,
            "semi_major_axis": 356.103515625,
            "eccentricity": 0.85888671875,
            "inclination": 0.2569417819708449,
            "longitude_of_ascending_node": 1.8201049609700648,
            "argument_of_perihelion": 5.116010290510648,
            "mean_anomaly": 0.27446980538763593
        },
        {
            "name": "TNO-604",
            "mass": 0,
            "semi_major_axis": 356.4453125,
            "eccentricity": 0.858984375,
            "inclination": 0.2573678877452576,
            "longitude_of_ascending_node": 1.9100649226860478,
            "argument_of_perihelion": 4.794044164387234,
            "mean_anomaly": 2.9556100533406457
        },
        {
            "name": "TNO-605",
            "mass": 0,
            "semi_major_axis": 356.787109375,
            "eccentricity": 0.85908203125,
            "inclination": 0.25779399351967025,
            "longitude_of_ascending_node": 2.162184416808961,
            "argument_of_perihelion": 0.8190497657286592,
            "mean_anomaly": 0.16079522266406987
        },
        {
            "name": "TNO-606",
            "mass": 0,
            "semi_major_axis": 357.12890625,
            "eccentricity": 0.8591796875000001,
            "inclination": 0.25822009929408296,
            "longitude_of_ascending_node": 1.8597797587533083,
            "argument_of_perihelion": 2.765658411992294,
            "mean_anomaly": 6.257977737603871
        },
        {
            "name": "TNO-607",
            "mass": 0,
            "semi_major_axis": 357.470703125,
            "eccentricity": 0.8592773437500001,
            "inclination": 0.2586462050684956,
            "longitude_of_ascending_node": 6.251093529733775,
            "argument_of_perihelion": 2.822852702619145,
            "mean_anomaly": 3.3269153883957743
        },
        {
            "name": "TNO-608",
            "mass": 0,
            "semi_major_axis": 357.8125,
            "eccentricity": 0.859375,
            "inclination": 0.25907231084290827,
            "longitude_of_ascending_node": 3.5811749967552977,
            "argument_of_perihelion": 6.027800762002971,
            "mean_anomaly": 2.502747460018358
        },
        {
            "name": "TNO-609",
            "mass": 0,
            "semi_major_axis": 358.154296875,
            "eccentricity": 0.85947265625,
            "inclination": 0.259498416617321,
            "longitude_of_ascending_node": 0.7747793129256872,
            "argument_of_perihelion": 4.402983659848763,
            "mean_anomaly": 3.4445810132266996
        },
        {
            "name": "TNO-610",
            "mass": 0,
            "semi_major_axis": 358.49609375,
            "eccentricity": 0.8595703125,
            "inclination": 0.25992452239173364,
            "longitude_of_ascending_node": 2.2715770233849883,
            "argument_of_perihelion": 3.959866492007038,
            "mean_anomaly": 2.1532772230139328
        },
        {
            "name": "TNO-611",
            "mass": 0,
            "semi_major_axis": 358.837890625,
            "eccentricity": 0.8596679687500001,
            "inclination": 0.26035062816614635,
            "longitude_of_ascending_node": 4.9148173153705885,
            "argument_of_perihelion": 0.7695970321551933,
            "mean_anomaly": 6.054995140199772
        },
        {
            "name": "TNO-612",
            "mass": 0,
            "semi_major_axis": 359.1796875,
            "eccentricity": 0.8597656250000001,
            "inclination": 0.260776733940559,
            "longitude_of_ascending_node": 1.1100455306289918,
            "argument_of_perihelion": 6.057894359062618,
            "mean_anomaly": 4.126015811367919
        },
        {
            "name": "TNO-613",
            "mass": 0,
            "semi_major_axis": 359.521484375,
            "eccentricity": 0.85986328125,
            "inclination": 0.26120283971497166,
            "longitude_of_ascending_node": 0.5924016739749254,
            "argument_of_perihelion": 5.834631089476025,
            "mean_anomaly": 2.0276449406495174
        },
        {
            "name": "TNO-614",
            "mass": 0,
            "semi_major_axis": 359.86328125,
            "eccentricity": 0.8599609375,
            "inclination": 0.26162894548938437,
            "longitude_of_ascending_node": 2.5804987045071552,
            "argument_of_perihelion": 0.6288485750887157,
            "mean_anomaly": 2.344379406967078
        },
        {
            "name": "TNO-615",
            "mass": 0,
            "semi_major_axis": 360.205078125,
            "eccentricity": 0.86005859375,
            "inclination": 0.262055051263797,
            "longitude_of_ascending_node": 2.438628821743371,
            "argument_of_perihelion": 0.058041556036900296,
            "mean_anomaly": 0.8711334544836101
        },
        {
            "name": "TNO-616",
            "mass": 0,
            "semi_major_axis": 360.546875,
            "eccentricity": 0.8601562500000001,
            "inclination": 0.26248115703820973,
            "longitude_of_ascending_node": 3.66042412615396,
            "argument_of_perihelion": 4.2554508395975885,
            "mean_anomaly": 3.833783761665249
        },
        {
            "name": "TNO-617",
            "mass": 0,
            "semi_major_axis": 360.888671875,
            "eccentricity": 0.8602539062500001,
            "inclination": 0.2629072628126224,
            "longitude_of_ascending_node": 5.936795949296013,
            "argument_of_perihelion": 4.046155672128801,
            "mean_anomaly": 0.32887570695386154
        },
        {
            "name": "TNO-618",
            "mass": 0,
            "semi_major_axis": 361.23046875,
            "eccentricity": 0.8603515625,
            "inclination": 0.26333336858703504,
            "longitude_of_ascending_node": 3.253067453089639,
            "argument_of_perihelion": 4.932952449320274,
            "mean_anomaly": 1.9633428843541176
        }
    ]
}